NORAD_CAT_ID,OBJECT_NAME,OBJECT_TYPE,EPOCH,MEAN_MOTION,ECCENTRICITY,INCLINATION,RA_OF_ASC_NODE,ARG_OF_PERICENTER,MEAN_ANOMALY,BSTAR,MEAN_MOTION_DOT,MEAN_MOTION_DDOT,TLE_LINE0,TLE_LINE1,TLE_LINE2,SEMIMAJOR_AXIS,PERIOD,APOGEE,PERIGEE,DECAYED
52854.0,STARLINK-4204,PAYLOAD,2023-07-06 01:29:41,15.08841866,0.0001306,53.2173,92.8583,86.8017,273.3124,6.502e-05,7.47e-06,0.0,0 STARLINK-4204,1 52854U 22062AA  23187.06228912  .00000747  00000-0  65020-4 0  9992,2 52854  53.2173  92.8583 0001306  86.8017 273.3124 15.08841866 58824,6917.875,95.437,540.643,538.836,0.0
52854.0,STARLINK-4204,PAYLOAD,2023-07-07 17:14:20,15.08840843,0.0001299,53.2169,85.4245,85.0281,275.0859,6.5469e-05,7.54e-06,0.0,0 STARLINK-4204,1 52854U 22062AA  23188.71829019  .00000754  00000-0  65469-4 0  9995,2 52854  53.2169  85.4245 0001299  85.0281 275.0859 15.08840843 59073,6917.878,95.438,540.641,538.844,0.0
52854.0,STARLINK-4204,PAYLOAD,2023-07-08 02:46:38,15.08847433,0.0001301,53.2171,83.639,91.4028,268.7113,8.6903e-05,1.096e-05,0.0,0 STARLINK-4204,1 52854U 22062AA  23189.11572443  .00001096  00000-0  86903-4 0  9992,2 52854  53.2171  83.6390 0001301  91.4028 268.7113 15.08847433 59132,6917.858,95.437,540.623,538.823,0.0
52854.0,STARLINK-4204,PAYLOAD,2023-07-09 02:37:26,15.0883995,0.0001361,53.2178,79.1765,103.92,256.1944,-8.7677e-05,-1.683e-05,0.0,0 STARLINK-4204,1 52854U 22062AA  23190.10933456 -.00001683  00000-0 -87677-4 0  9991,2 52854  53.2178  79.1765 0001361 103.9200 256.1944 15.08839950 59286,6917.881,95.438,540.687,538.804,0.0
52854.0,STARLINK-4204,PAYLOAD,2023-07-10 12:00:32,15.08831054,0.000112,53.2169,72.9354,101.7932,258.3186,5.5313e-05,5.92e-06,0.0,0 STARLINK-4204,1 52854U 22062AA  23191.50037750  .00000592  00000-0  55313-4 0  9996,2 52854  53.2169  72.9354 0001120 101.7932 258.3186 15.08831054 59494,6917.908,95.438,540.548,538.998,0.0
52854.0,STARLINK-4204,PAYLOAD,2023-07-10 23:08:14,15.08837346,0.0001063,53.2171,70.8551,105.2132,254.8977,4.3811e-05,4.09e-06,0.0,0 STARLINK-4204,1 52854U 22062AA  23191.96405604  .00000409  00000-0  43811-4 0  9990,2 52854  53.2171  70.8551 0001063 105.2132 254.8977 15.08837346 59567,6917.889,95.438,540.489,539.018,0.0
52854.0,STARLINK-4204,PAYLOAD,2023-07-12 02:09:50,15.0881444,0.0001,53.2171,65.7992,91.8362,268.2745,-0.00017155,-3.015e-05,0.0,0 STARLINK-4204,1 52854U 22062AA  23193.09016751 -.00003015  00000-0 -17155-3 0  9996,2 52854  53.2171  65.7992 0001000  91.8362 268.2745 15.08814440 59736,6917.959,95.439,540.515,539.132,0.0
52854.0,STARLINK-4204,PAYLOAD,2023-07-12 14:52:54,15.08831561,5.81e-05,53.2187,63.4224,96.6597,263.4461,7.4842e-05,9.03e-06,0.0,0 STARLINK-4204,1 52854U 22062AA  23193.62007177  .00000903  00000-0  74842-4 0  9995,2 52854  53.2187  63.4224 0000581  96.6597 263.4461 15.08831561 59816,6917.906,95.438,540.173,539.369,0.0
52854.0,STARLINK-4204,PAYLOAD,2023-07-13 14:43:40,15.088327,9.86e-05,53.2174,58.9589,81.4412,278.6692,0.00027745,4.13e-05,0.0,0 STARLINK-4204,1 52854U 22062AA  23194.61366550  .00004130  00000-0  27745-3 0  9993,2 52854  53.2174  58.9589 0000986  81.4412 278.6692 15.08832700 59968,6917.903,95.438,540.45,539.086,0.0
52854.0,STARLINK-4204,PAYLOAD,2023-07-15 00:06:45,15.08858335,9.75e-05,53.2173,52.7127,91.0544,269.056,5.9475e-06,-1.93e-06,0.0,0 STARLINK-4204,1 52854U 22062AA  23196.00469295 -.00000193  00000-0  59475-5 0  9991,2 52854  53.2173  52.7127 0000975  91.0544 269.0560 15.08858335 60173,6917.824,95.436,540.364,539.015,0.0
52854.0,STARLINK-4204,PAYLOAD,2023-07-15 17:36:00,15.08847533,8.39e-05,53.2181,49.442,103.9861,256.1225,-6.1101e-05,-1.26e-05,0.0,0 STARLINK-4204,1 52854U 22062AA  23196.73333804 -.00001260  00000-0 -61101-4 0  9992,2 52854  53.2181  49.4420 0000839 103.9861 256.1225 15.08847533 60280,6917.857,95.437,540.303,539.142,0.0
52854.0,STARLINK-4204,PAYLOAD,2023-07-16 20:37:34,15.08841027,0.0001003,53.2178,44.3886,88.1306,271.9801,-7.8902e-05,-1.543e-05,0.0,0 STARLINK-4204,1 52854U 22062AA  23197.85942265 -.00001543  00000-0 -78902-4 0  9994,2 52854  53.2178  44.3886 0001003  88.1306 271.9801 15.08841027 60454,6917.877,95.437,540.436,539.048,0.0
52854.0,STARLINK-4204,PAYLOAD,2023-07-17 20:28:20,15.088442,0.0001008,53.2179,39.9281,95.556,264.5547,0.00012674,1.73e-05,0.0,0 STARLINK-4204,1 52854U 22062AA  23198.85301489  .00001730  00000-0  12674-3 0  9991,2 52854  53.2179  39.9281 0001008  95.5560 264.5547 15.08844200 60601,6917.868,95.437,540.43,539.035,0.0
52854.0,STARLINK-4204,PAYLOAD,2023-07-18 21:54:31,15.08834894,0.00013,53.2178,35.169,90.8428,269.2713,4.3604e-05,4.06e-06,0.0,0 STARLINK-4204,1 52854U 22062AA  23199.91286624  .00000406  00000-0  43604-4 0  9999,2 52854  53.2178  35.1690 0001300  90.8428 269.2713 15.08834894 60760,6917.896,95.438,540.66,538.862,0.0
52854.0,STARLINK-4204,PAYLOAD,2023-07-20 21:36:05,15.08846763,0.0001041,53.2174,26.2483,120.7216,239.3879,0.00011273,1.507e-05,0.0,0 STARLINK-4204,1 52854U 22062AA  23201.90006236  .00001507  00000-0  11273-3 0  9990,2 52854  53.2174  26.2483 0001041 120.7216 239.3879 15.08846763 61060,6917.86,95.437,540.445,539.005,0.0
52854.0,STARLINK-4204,PAYLOAD,2023-07-21 11:54:34,15.08836121,9.37e-05,53.218,23.5725,85.3393,274.7706,0.00011902,1.607e-05,0.0,0 STARLINK-4204,1 52854U 22062AA  23202.49623076  .00001607  00000-0  11902-3 0  9992,2 52854  53.2180  23.5725 0000937  85.3393 274.7706 15.08836121 61150,6917.892,95.438,540.405,539.109,0.0
52854.0,STARLINK-4204,PAYLOAD,2023-07-24 11:26:55,15.08838543,9.36e-05,53.2177,10.1927,82.833,277.2768,2.5053e-05,1.11e-06,0.0,0 STARLINK-4204,1 52854U 22062AA  23205.47703144  .00000111  00000-0  25053-4 0  9990,2 52854  53.2177  10.1927 0000936  82.8330 277.2768 15.08838543 61116,6917.885,95.438,540.397,539.102,0.0
52854.0,STARLINK-4204,PAYLOAD,2023-07-25 11:17:42,15.08839921,0.0002122,53.219,5.7307,118.5263,241.5943,2.0391e-05,3.6e-07,0.0,0 STARLINK-4204,1 52854U 22062AA  23206.47063034  .00000036  00000-0  20391-4 0  9994,2 52854  53.2190   5.7307 0002122 118.5263 241.5943 15.08839921 61260,6917.881,95.438,541.214,538.278,0.0
52854.0,STARLINK-4204,PAYLOAD,2023-07-26 11:08:29,15.08869917,7.85e-05,53.2195,1.2724,100.4522,259.6559,-0.00036268,-6.06e-05,0.0,0 STARLINK-4204,1 52854U 22062AA  23207.46422975 -.00006060  00000-0 -36268-3 0  9991,2 52854  53.2195   1.2724 0000785 100.4522 259.6559 15.08869917 61418,6917.789,95.436,540.197,539.111,0.0
52854.0,STARLINK-4204,PAYLOAD,2023-07-27 03:02:20,15.08840034,9.08e-05,53.2187,358.2972,93.0724,267.0372,0.00011868,1.602e-05,0.0,0 STARLINK-4204,1 52854U 22062AA  23208.12663024  .00001602  00000-0  11868-3 0  9991,2 52854  53.2187 358.2972 0000908  93.0724 267.0372 15.08840034 62008,6917.88,95.438,540.373,539.117,0.0
52854.0,STARLINK-4204,PAYLOAD,2023-07-27 12:34:40,15.08829798,0.000104,53.2181,356.5128,93.2471,266.864,-3.431e-05,-8.34e-06,0.0,0 STARLINK-4204,1 52854U 22062AA  23208.52408301 -.00000834  00000-0 -34310-4 0  9996,2 52854  53.2181 356.5128 0001040  93.2471 266.8640 15.08829798 61575,6917.912,95.438,540.496,539.057,0.0
52854.0,STARLINK-4204,PAYLOAD,2023-07-27 18:56:12,15.08837496,9.77e-05,53.2181,355.323,90.9705,269.1399,3.0374e-05,1.96e-06,0.0,0 STARLINK-4204,1 52854U 22062AA  23208.78903705  .00000196  00000-0  30374-4 0  9997,2 52854  53.2181 355.3230 0000977  90.9705 269.1399 15.08837496 62109,6917.888,95.438,540.429,539.077,0.0
52854.0,STARLINK-4204,PAYLOAD,2023-07-28 12:25:27,15.08838839,0.0001135,53.2181,352.0522,89.6021,270.5101,1.0007e-05,-1.29e-06,0.0,0 STARLINK-4204,1 52854U 22062AA  23209.51767921 -.00000129  00000-0  10007-4 0  9995,2 52854  53.2181 352.0522 0001135  89.6021 270.5101 15.08838839 61726,6917.884,95.438,540.534,538.964,0.0
52854.0,STARLINK-4204,PAYLOAD,2023-07-29 02:43:55,15.08847303,7.95e-05,53.2185,349.3764,116.319,243.7884,-5.0704e-06,-3.68e-06,0.0,0 STARLINK-4204,1 52854U 22062AA  23210.11383113 -.00000368  00000-0 -50704-5 0  9995,2 52854  53.2185 349.3764 0000795 116.3190 243.7884 15.08847303 62304,6917.858,95.437,540.273,539.173,0.0
52854.0,STARLINK-4204,PAYLOAD,2023-07-29 09:05:28,15.08829748,0.0001021,53.2181,348.1874,98.1925,261.9183,0.00021427,3.123e-05,0.0,0 STARLINK-4204,1 52854U 22062AA  23210.37879796  .00003123  00000-0  21427-3 0  9998,2 52854  53.2181 348.1874 0001021  98.1925 261.9183 15.08829748 62346,6917.912,95.438,540.483,539.07,0.0
52854.0,STARLINK-4204,PAYLOAD,2023-07-30 18:28:33,15.08844933,8.6e-05,53.2179,341.9422,87.7982,272.3109,5.989e-05,6.66e-06,0.0,0 STARLINK-4204,1 52854U 22062AA  23211.76983268  .00000666  00000-0  59890-4 0  9997,2 52854  53.2179 341.9422 0000860  87.7982 272.3109 15.08844933 62550,6917.865,95.437,540.325,539.135,0.0
52854.0,STARLINK-4204,PAYLOAD,2023-08-01 14:59:21,15.08840596,7.91e-05,53.2189,333.6136,101.0913,259.0168,8.2092e-05,1.019e-05,0.0,0 STARLINK-4204,1 52854U 22062AA  23213.62455235  .00001019  00000-0  82092-4 0  9995,2 52854  53.2189 333.6136 0000791 101.0913 259.0168 15.08840596 62837,6917.879,95.438,540.291,539.196,0.0
52854.0,STARLINK-4204,PAYLOAD,2023-08-02 08:28:36,15.0883497,0.0001104,53.2191,330.3474,93.3602,266.7517,2.2339e-05,6.8e-07,0.0,0 STARLINK-4204,1 52854U 22062AA  23214.35319988  .00000068  00000-0  22339-4 0  9991,2 52854  53.2191 330.3474 0001104  93.3602 266.7517 15.08834970 62940,6917.896,95.438,540.524,538.997,0.0
52854.0,STARLINK-4204,PAYLOAD,2023-08-02 14:50:08,15.08842614,9.16e-05,53.2179,329.1572,86.6283,273.4813,7.9276e-05,9.74e-06,0.0,0 STARLINK-4204,1 52854U 22062AA  23214.61815394  .00000974  00000-0  79276-4 0  9990,2 52854  53.2179 329.1572 0000916  86.6283 273.4813 15.08842614 62983,6917.872,95.437,540.371,539.104,0.0
52854.0,STARLINK-4204,PAYLOAD,2023-08-04 09:45:33,15.08834104,8.02e-05,53.2178,321.1278,113.2203,246.8874,-1.3631e-05,-5.05e-06,0.0,0 STARLINK-4204,1 52854U 22062AA  23216.40664350 -.00000505  00000-0 -13631-4 0  9998,2 52854  53.2178 321.1278 0000802 113.2203 246.8874 15.08834104 63257,6917.898,95.438,540.318,539.209,0.0
